start=new Date('2023-06-29T00:00:00.000Z').valueOf();
sats=[{"MEAN_ANOMALY":"283.0700","OBJECT_ID":"2022-107AX","MEAN_MOTION_DDOT":"0.0000000000000","SITE":"AFETR","GP_ID":"234606554","DECAY_DATE":null,"REF_FRAME":"TEME","RA_OF_ASC_NODE":"8.0626","MEAN_ELEMENT_THEORY":"SGP4","EPOCH":"2023-06-28T05:59:31.041312","COUNTRY_CODE":"US","MEAN_MOTION_DOT":"0.00000090","OBJECT_NAME":"STARLINK-4656","INCLINATION":"53.2186","CLASSIFICATION_TYPE":"U","PERIOD":"95.438","SEMIMAJOR_AXIS":"6917.902","OBJECT_TYPE":"PAYLOAD","TIME_SYSTEM":"UTC","EPHEMERIS_TYPE":"0","NORAD_CAT_ID":"53745","BSTAR":"0.00002371400000","MEAN_MOTION":"15.08833059","PERIAPSIS":"539.005","FILE":"3945000","RCS_SIZE":"LARGE","ARG_OF_PERICENTER":"77.0415","TLE_LINE1":"1 53745U 22107AX  23179.24966483  .00000090  00000-0  23714-4 0  9990","APOAPSIS":"540.528","CENTER_NAME":"EARTH","REV_AT_EPOCH":"4504","ELEMENT_SET_NO":"999","LAUNCH_DATE":"2022-09-05","TLE_LINE2":"2 53745  53.2186   8.0626 0001101  77.0415 283.0700 15.08833059 45045","ECCENTRICITY":"0.00011010"},{"SITE":"AFETR","GP_ID":"234609051","MEAN_ANOMALY":"262.7957","MEAN_MOTION_DDOT":"0.0000000000000","OBJECT_ID":"2022-107AY","DECAY_DATE":null,"RA_OF_ASC_NODE":"5.6355","MEAN_ELEMENT_THEORY":"SGP4","REF_FRAME":"TEME","COUNTRY_CODE":"US","EPOCH":"2023-06-28T18:31:58.869696","MEAN_MOTION_DOT":"0.00001139","INCLINATION":"53.2163","OBJECT_NAME":"STARLINK-4589","CLASSIFICATION_TYPE":"U","SEMIMAJOR_AXIS":"6917.873","PERIOD":"95.437","OBJECT_TYPE":"PAYLOAD","NORAD_CAT_ID":"53746","TIME_SYSTEM":"UTC","EPHEMERIS_TYPE":"0","MEAN_MOTION":"15.08842419","BSTAR":"0.00008960000000","PERIAPSIS":"539.054","RCS_SIZE":"LARGE","FILE":"3945096","CENTER_NAME":"EARTH","ARG_OF_PERICENTER":"97.3148","TLE_LINE1":"1 53746U 22107AY  23179.77220914  .00001139  00000-0  89600-4 0  9992","APOAPSIS":"540.422","ELEMENT_SET_NO":"999","LAUNCH_DATE":"2022-09-05","REV_AT_EPOCH":"4512","TLE_LINE2":"2 53746  53.2163   5.6355 0000989  97.3148 262.7957 15.08842419 45121","ECCENTRICITY":"0.00009890"},{"DECAY_DATE":null,"MEAN_ELEMENT_THEORY":"SGP4","RA_OF_ASC_NODE":"5.7040","REF_FRAME":"TEME","GP_ID":"234612239","SITE":"AFETR","MEAN_MOTION_DDOT":"0.0000000000000","OBJECT_ID":"2022-107BA","MEAN_ANOMALY":"275.0281","CLASSIFICATION_TYPE":"U","OBJECT_TYPE":"PAYLOAD","SEMIMAJOR_AXIS":"6917.858","PERIOD":"95.437","COUNTRY_CODE":"US","EPOCH":"2023-06-28T18:47:54.114144","MEAN_MOTION_DOT":"0.00003209","OBJECT_NAME":"STARLINK-4669","INCLINATION":"53.2166","PERIAPSIS":"539.079","RCS_SIZE":"LARGE","FILE":"3945225","NORAD_CAT_ID":"53748","EPHEMERIS_TYPE":"0","TIME_SYSTEM":"UTC","MEAN_MOTION":"15.08847191","BSTAR":"0.00021955000000","LAUNCH_DATE":"2022-09-05","ELEMENT_SET_NO":"999","REV_AT_EPOCH":"4512","ECCENTRICITY":"0.00009320","TLE_LINE2":"2 53748  53.2166   5.7040 0000932  85.0817 275.0281 15.08847191 45122","CENTER_NAME":"EARTH","APOAPSIS":"540.368","TLE_LINE1":"1 53748U 22107BA  23179.78326521  .00003209  00000-0  21955-3 0  9994","ARG_OF_PERICENTER":"85.0817"},{"MEAN_ANOMALY":"273.6746","MEAN_MOTION_DDOT":"0.0000000000000","OBJECT_ID":"2022-107BB","SITE":"AFETR","GP_ID":"234611736","DECAY_DATE":null,"REF_FRAME":"TEME","RA_OF_ASC_NODE":"5.9878","MEAN_ELEMENT_THEORY":"SGP4","EPOCH":"2023-06-28T17:17:48.917184","COUNTRY_CODE":"US","INCLINATION":"53.2175","MEAN_MOTION_DOT":"0.00000782","OBJECT_NAME":"STARLINK-4680","CLASSIFICATION_TYPE":"U","PERIOD":"95.438","SEMIMAJOR_AXIS":"6917.879","OBJECT_TYPE":"PAYLOAD","EPHEMERIS_TYPE":"0","TIME_SYSTEM":"UTC","NORAD_CAT_ID":"53749","BSTAR":"0.00006722200000","MEAN_MOTION":"15.08840372","PERIAPSIS":"538.942","RCS_SIZE":"LARGE","FILE":"3945225","ARG_OF_PERICENTER":"86.4378","TLE_LINE1":"1 53749U 22107BB  23179.72070506  .00000782  00000-0  67222-4 0  9999","APOAPSIS":"540.546","CENTER_NAME":"EARTH","REV_AT_EPOCH":"4511","ELEMENT_SET_NO":"999","LAUNCH_DATE":"2022-09-05","TLE_LINE2":"2 53749  53.2175   5.9878 0001159  86.4378 273.6746 15.08840372 45116","ECCENTRICITY":"0.00011590"},{"PERIAPSIS":"539.112","FILE":"3945225","RCS_SIZE":"LARGE","TIME_SYSTEM":"UTC","EPHEMERIS_TYPE":"0","NORAD_CAT_ID":"53750","BSTAR":"0.00005669400000","MEAN_MOTION":"15.08834930","REV_AT_EPOCH":"4511","ELEMENT_SET_NO":"999","LAUNCH_DATE":"2022-09-05","ECCENTRICITY":"0.00009380","TLE_LINE2":"2 53750  53.2170   6.0461 0000938  85.5162 274.5937 15.08834930 45113","APOAPSIS":"540.410","ARG_OF_PERICENTER":"85.5162","TLE_LINE1":"1 53750U 22107BC  23179.72439647  .00000615  00000-0  56694-4 0  9992","CENTER_NAME":"EARTH","DECAY_DATE":null,"REF_FRAME":"TEME","MEAN_ELEMENT_THEORY":"SGP4","RA_OF_ASC_NODE":"6.0461","OBJECT_ID":"2022-107BC","MEAN_MOTION_DDOT":"0.0000000000000","MEAN_ANOMALY":"274.5937","GP_ID":"234612240","SITE":"AFETR","CLASSIFICATION_TYPE":"U","OBJECT_TYPE":"PAYLOAD","SEMIMAJOR_AXIS":"6917.896","PERIOD":"95.438","EPOCH":"2023-06-28T17:23:07.855008","COUNTRY_CODE":"US","MEAN_MOTION_DOT":"0.00000615","OBJECT_NAME":"STARLINK-4612","INCLINATION":"53.2170"},{"NORAD_CAT_ID":"53773","EPHEMERIS_TYPE":"0","TIME_SYSTEM":"UTC","MEAN_MOTION":"15.08821793","BSTAR":"0.00083749000000","PERIAPSIS":"538.933","RCS_SIZE":"LARGE","FILE":"3945242","CENTER_NAME":"EARTH","APOAPSIS":"540.669","TLE_LINE1":"1 53773U 22111A   23179.74460657  .00013059  00000-0  83749-3 0  9995","ARG_OF_PERICENTER":"80.1372","ELEMENT_SET_NO":"999","LAUNCH_DATE":"2022-09-11","REV_AT_EPOCH":"4405","ECCENTRICITY":"0.00012550","TLE_LINE2":"2 53773  53.2171  25.6349 0001255  80.1372 279.9761 15.08821793 44057","GP_ID":"234612681","SITE":"AFETR","OBJECT_ID":"2022-111A","MEAN_MOTION_DDOT":"0.0000000000000","MEAN_ANOMALY":"279.9761","DECAY_DATE":null,"MEAN_ELEMENT_THEORY":"SGP4","RA_OF_ASC_NODE":"25.6349","REF_FRAME":"TEME","COUNTRY_CODE":"US","EPOCH":"2023-06-28T17:52:14.007648","MEAN_MOTION_DOT":"0.00013059","INCLINATION":"53.2171","OBJECT_NAME":"STARLINK-4718","CLASSIFICATION_TYPE":"U","OBJECT_TYPE":"PAYLOAD","PERIOD":"95.439","SEMIMAJOR_AXIS":"6917.936"},{"ELEMENT_SET_NO":"999","LAUNCH_DATE":"2022-09-11","REV_AT_EPOCH":"4405","ECCENTRICITY":"0.00010300","TLE_LINE2":"2 53774  53.2166  25.6107 0001030  87.2376 272.8734 15.08834753 44059","CENTER_NAME":"EARTH","APOAPSIS":"540.474","TLE_LINE1":"1 53774U 22111B   23179.74091224  .00000132  00000-0  26386-4 0  9999","ARG_OF_PERICENTER":"87.2376","PERIAPSIS":"539.049","RCS_SIZE":"MEDIUM","FILE":"3945242","NORAD_CAT_ID":"53774","TIME_SYSTEM":"UTC","EPHEMERIS_TYPE":"0","MEAN_MOTION":"15.08834753","BSTAR":"0.00002638600000","CLASSIFICATION_TYPE":"U","OBJECT_TYPE":"PAYLOAD","SEMIMAJOR_AXIS":"6917.896","PERIOD":"95.438","COUNTRY_CODE":"US","EPOCH":"2023-06-28T17:46:54.817536","MEAN_MOTION_DOT":"0.00000132","OBJECT_NAME":"STARLINK-4719","INCLINATION":"53.2166","DECAY_DATE":null,"MEAN_ELEMENT_THEORY":"SGP4","RA_OF_ASC_NODE":"25.6107","REF_FRAME":"TEME","GP_ID":"234612408","SITE":"AFETR","MEAN_MOTION_DDOT":"0.0000000000000","OBJECT_ID":"2022-111B","MEAN_ANOMALY":"272.8734"},{"RCS_SIZE":"LARGE","FILE":"3945243","PERIAPSIS":"538.944","MEAN_MOTION":"15.08840251","BSTAR":"0.00009149200000","NORAD_CAT_ID":"53775","TIME_SYSTEM":"UTC","EPHEMERIS_TYPE":"0","ECCENTRICITY":"0.00011570","TLE_LINE2":"2 53775  53.2167  15.8233 0001157  81.2224 278.8899 15.08840251 44191","LAUNCH_DATE":"2022-09-11","ELEMENT_SET_NO":"999","REV_AT_EPOCH":"4419","CENTER_NAME":"EARTH","APOAPSIS":"540.545","ARG_OF_PERICENTER":"81.2224","TLE_LINE1":"1 53775U 22111C   23179.77131341  .00001169  00000-0  91492-4 0  9999","MEAN_ELEMENT_THEORY":"SGP4","RA_OF_ASC_NODE":"15.8233","REF_FRAME":"TEME","DECAY_DATE":null,"GP_ID":"234612699","SITE":"AFETR","OBJECT_ID":"2022-111C","MEAN_MOTION_DDOT":"0.0000000000000","MEAN_ANOMALY":"278.8899","OBJECT_TYPE":"PAYLOAD","SEMIMAJOR_AXIS":"6917.880","PERIOD":"95.438","CLASSIFICATION_TYPE":"U","INCLINATION":"53.2167","MEAN_MOTION_DOT":"0.00001169","OBJECT_NAME":"STARLINK-4722","COUNTRY_CODE":"US","EPOCH":"2023-06-28T18:30:41.478624"},{"OBJECT_TYPE":"PAYLOAD","SEMIMAJOR_AXIS":"6917.880","PERIOD":"95.438","CLASSIFICATION_TYPE":"U","MEAN_MOTION_DOT":"0.00000411","OBJECT_NAME":"STARLINK-4708","INCLINATION":"53.2177","EPOCH":"2023-06-27T20:08:02.497056","COUNTRY_CODE":"US","REF_FRAME":"TEME","MEAN_ELEMENT_THEORY":"SGP4","RA_OF_ASC_NODE":"24.9415","DECAY_DATE":null,"OBJECT_ID":"2022-111D","MEAN_MOTION_DDOT":"0.0000000000000","MEAN_ANOMALY":"268.0789","GP_ID":"234595159","SITE":"AFETR","TLE_LINE2":"2 53776  53.2177  24.9415 0001157  92.0335 268.0789 15.08840152 43984","ECCENTRICITY":"0.00011570","REV_AT_EPOCH":"4398","LAUNCH_DATE":"2022-09-11","ELEMENT_SET_NO":"999","APOAPSIS":"540.545","ARG_OF_PERICENTER":"92.0335","TLE_LINE1":"1 53776U 22111D   23178.83891779  .00000411  00000-0  43888-4 0  9999","CENTER_NAME":"EARTH","RCS_SIZE":"LARGE","FILE":"3944516","PERIAPSIS":"538.945","BSTAR":"0.00004388800000","MEAN_MOTION":"15.08840152","EPHEMERIS_TYPE":"0","TIME_SYSTEM":"UTC","NORAD_CAT_ID":"53776"},{"EPOCH":"2023-06-28T16:44:41.523648","COUNTRY_CODE":"US","INCLINATION":"53.2172","MEAN_MOTION_DOT":"0.00001407","OBJECT_NAME":"STARLINK-4664","CLASSIFICATION_TYPE":"U","SEMIMAJOR_AXIS":"6917.877","PERIOD":"95.437","OBJECT_TYPE":"PAYLOAD","MEAN_ANOMALY":"271.7722","MEAN_MOTION_DDOT":"0.0000000000000","OBJECT_ID":"2022-111E","SITE":"AFETR","GP_ID":"234611635","DECAY_DATE":null,"REF_FRAME":"TEME","RA_OF_ASC_NODE":"16.0754","MEAN_ELEMENT_THEORY":"SGP4","TLE_LINE1":"1 53777U 22111E   23179.69770282  .00001407  00000-0  10647-3 0  9992","ARG_OF_PERICENTER":"88.3385","APOAPSIS":"540.441","CENTER_NAME":"EARTH","REV_AT_EPOCH":"4418","ELEMENT_SET_NO":"999","LAUNCH_DATE":"2022-09-11","TLE_LINE2":"2 53777  53.2172  16.0754 0001010  88.3385 271.7722 15.08841079 44189","ECCENTRICITY":"0.00010100","TIME_SYSTEM":"UTC","EPHEMERIS_TYPE":"0","NORAD_CAT_ID":"53777","BSTAR":"0.00010647000000","MEAN_MOTION":"15.08841079","PERIAPSIS":"539.043","RCS_SIZE":"LARGE","FILE":"3945219"}];
